stk.v.9.0

# WrittenBy    STK_v9.2.1

BEGIN Ephemeris

NumberOfEphemerisPoints 91

ScenarioEpoch            19 May 2020 04:00:00.000

# Epoch in JDate format: 2458988.66666666666667
# Epoch in YYDDD format:   20140.16666666666667


InterpolationMethod     Lagrange

InterpolationSamplesM1      5

CentralBody             Earth

CoordinateSystem        ICRF 

# Time of first point: 19 May 2020 04:00:00.000000000 UTCG = 2458988.66666666666667 JDate = 20140.16666666666667 YYDDD

EphemerisTimePosVel

0.00000000000000e+000 -4.85115865007314e+006 -3.98350216130959e+006 -2.93207308459926e+006 1.34280410994681e+003 -5.41656927172088e+003 5.13723880437303e+003
6.00000000000000e+001 -4.76018547988080e+006 -4.29967112245328e+006 -2.61773656555474e+006 1.68854437821033e+003 -5.11860610294033e+003 5.33687713292645e+003
1.20000000000000e+002 -4.64867901801081e+006 -4.59729324300673e+006 -2.29210831246687e+006 2.02700102814112e+003 -4.79856357768535e+003 5.51349458229745e+003
1.80000000000000e+002 -4.51712025301186e+006 -4.87508471547191e+006 -1.95659293864903e+006 2.35671411051186e+003 -4.45782221496051e+003 5.66632930452474e+003
2.40000000000000e+002 -4.36607667001786e+006 -5.13184727281621e+006 -1.61263770599091e+006 2.67626139189930e+003 -4.09785181921294e+003 5.79472203959770e+003
3.00000000000000e+002 -4.19619980287319e+006 -5.36647335725555e+006 -1.26172628212397e+006 2.98426448955740e+003 -3.72020514025932e+003 5.89811895920655e+003
3.60000000000000e+002 -4.00822242370975e+006 -5.57795089775881e+006 -9.05372340548900e+005 3.27939481713830e+003 -3.32651117542398e+003 5.97607405570771e+003
4.20000000000000e+002 -3.80295538209874e+006 -5.76536767566544e+006 -5.45113031331342e+005 3.56037931561419e+003 -2.91846814277969e+003 6.02825106599946e+003
4.80000000000000e+002 -3.58128410741157e+006 -5.92791525958505e+006 -1.82502350530277e+005 3.82600594467940e+003 -2.49783615580139e+003 6.05442492200921e+003
5.40000000000000e+002 -3.34416478947716e+006 -6.06489249260552e+006 1.80895563039583e+005 4.07512891094521e+003 -2.06642963103105e+003 6.05448272153553e+003
6.00000000000000e+002 -3.09262025401064e+006 -6.17570851676750e+006 5.43513174796669e+005 4.30667361037538e+003 -1.62610946150366e+003 6.02842421525738e+003
6.60000000000000e+002 -2.82773555060481e+006 -6.25988532175894e+006 9.03786316029251e+005 4.51964126364294e+003 -1.17877498969457e+003 5.97636180780946e+003
7.20000000000000e+002 -2.55065327231598e+006 -6.31705980683581e+006 1.26016093101328e+006 4.71311322441344e+003 -7.26355814613303e+002 5.89852007291944e+003
7.80000000000000e+002 -2.26256862703317e+006 -6.34698534707489e+006 1.61109978050736e+006 4.88625494197056e+003 -2.70803468384344e+002 5.79523478469822e+003
8.40000000000000e+002 -1.96472428189078e+006 -6.34953285720230e+006 1.95508907270902e+006 5.03831956109131e+003 1.85917001781625e+002 5.66695146926195e+003
9.00000000000000e+002 -1.65840500296340e+006 -6.32469134840914e+006 2.29064499306931e+006 5.16865114364228e+003 6.41835509914487e+002 5.51422348293348e+003
9.60000000000000e+002 -1.34493211336487e+006 -6.27256797575230e+006 2.61632010479904e+006 5.27668749800078e+003 1.09498542934637e+003 5.33770962531294e+003
1.02000000000000e+003 -1.02565779365671e+006 -6.19338757593581e+006 2.93070959245781e+006 5.36196260409568e+003 1.54341207585148e+003 5.13817129751357e+003
1.08000000000000e+003 -7.01959249151515e+005 -6.08749169746686e+006 3.23245732169377e+006 5.42410862360773e+003 1.98518113927159e+003 4.91646921782101e+003
1.14000000000000e+003 -3.75232769270778e+005 -5.95533712736968e+006 3.52026168899510e+006 5.46285748665800e+003 2.41838702725706e+003 4.67355970894310e+003
1.20000000000000e+003 -4.68877045825750e+004 -5.79749392081244e+006 3.79288123622013e+006 5.47804204814038e+003 2.84116108513213e+003 4.41049057286530e+003
1.26000000000000e+003 2.81659612500699e+005 -5.61464294214661e+006 4.04914000568740e+006 5.46959680871009e+003 3.25167965642778e+003 4.12839657110591e+003
1.32000000000000e+003 6.08991977141105e+005 -5.40757292796541e+006 4.28793261272637e+006 5.43755819731833e+003 3.64817194931265e+003 3.82849452986699e+003
1.38000000000000e+003 9.33697425257175e+005 -5.17717708485014e+006 4.50822901380795e+006 5.38206441407419e+003 4.02892767498977e+003 3.51207809119538e+003
1.44000000000000e+003 1.25437532409969e+006 -4.92444923648015e+006 4.70907894968739e+006 5.30335483411180e+003 4.39230442511050e+003 3.18051213279476e+003
1.50000000000000e+003 1.56964241394918e+006 -4.65047953672604e+006 4.88961604439379e+006 5.20176897503397e+003 4.73673475638283e+003 2.83522688055926e+003
1.56000000000000e+003 1.87813877487404e+006 -4.35644976721789e+006 5.04906154238496e+006 5.07774503238659e+003 5.06073295181433e+003 2.47771173922449e+003
1.62000000000000e+003 2.17853369281131e+006 -4.04362823967270e+006 5.18672766774740e+006 4.93181798948073e+003 5.36290142942463e+003 2.10950886774777e+003
1.68000000000000e+003 2.46953139966654e+006 -3.71336432497009e+006 5.30202059095110e+006 4.76461730971615e+003 5.64193677078334e+003 1.73220652713036e+003
1.74000000000000e+003 2.74987666267251e+006 -3.36708263257535e+006 5.39444299036217e+006 4.57686422136028e+003 5.89663534336885e+003 1.34743222937645e+003
1.80000000000000e+003 3.01836019889685e+006 -3.00627686541721e+006 5.46359619746387e+006 4.36936860649501e+003 6.12589849249577e+003 9.56845717140847e+002
1.86000000000000e+003 3.27382389154279e+006 -2.63250337672756e+006 5.50918191653267e+006 4.14302550755090e+003 6.32873728041539e+003 5.62131804348353e+002
1.92000000000000e+003 3.51516578554235e+006 -2.24737445663609e+006 5.53100351135136e+006 3.89881126649813e+003 6.50427675214674e+003 1.64993108666884e+002
1.98000000000000e+003 3.74134484089309e+006 -1.85255137747832e+006 5.52896685340895e+006 3.63777931334789e+003 6.65175970963753e+003 -2.32857292816677e+002
2.04000000000000e+003 3.95138542323485e+006 -1.44973722781660e+006 5.50308072792857e+006 3.36105562213081e+003 6.77054997797471e+003 -6.29703253037836e+002
2.10000000000000e+003 4.14438151229604e+006 -1.04066956608470e+006 5.45345679597197e+006 3.06983385395312e+003 6.86013514955600e+003 -1.02383295763836e+003
2.16000000000000e+003 4.31950061005612e+006 -6.27112925544977e+005 5.38030911278415e+006 2.76537020808147e+003 6.92012879438494e+003 -1.41354630896079e+003
2.22000000000000e+003 4.47598733176637e+006 -2.10851202888300e+005 5.28395320445560e+006 2.44897800326622e+003 6.95027212695555e+003 -1.79716225950242e+003
2.28000000000000e+003 4.61316666433871e+006 2.06320036691155e+005 5.16480470688513e+006 2.12202201267712e+003 6.95043512253612e+003 -2.17302606319549e+003
2.34000000000000e+003 4.73044687804754e+006 6.22601304753695e+005 5.02337757291429e+006 1.78591257688785e+003 6.92061707803729e+003 -2.53951641323485e+003
2.40000000000000e+003 4.82732207898467e+006 1.03619695179507e+006 4.86028185536670e+006 1.44209952030334e+003 6.86094661504483e+003 -2.89505243566375e+003
2.46000000000000e+003 4.90337439125733e+006 1.44532291286799e+006 4.67622107555552e+006 1.09206589727162e+003 6.77168112500416e+003 -3.23810050855058e+003
2.52000000000000e+003 4.95827575951615e+006 1.84821440323303e+006 4.47198918861010e+006 7.37321594856792e+002 6.65320565894985e+003 -3.56718087734171e+003
2.58000000000000e+003 4.99178936403788e+006 2.24313353084356e+006 4.24846715871180e+006 3.79396819867638e+002 6.50603126656922e+003 -3.88087403785472e+003
2.64000000000000e+003 5.00377064225878e+006 2.62837679282754e+006 4.00661915901222e+006 1.98354982361629e+001 6.33079279176470e+003 -4.17782685937877e+003
2.70000000000000e+003 4.99416791235231e+006 3.00228242363012e+006 3.74748841262536e+006 -3.39811384782060e+002 6.12824613422369e+003 -4.45675842146977e+003
2.76000000000000e+003 4.96302259616112e+006 3.36323756312020e+006 3.47219269263393e+006 -6.97992474858265e+002 5.89926498880856e+003 -4.71646553926302e+003
2.82000000000000e+003 4.91046904052202e+006 3.70968521374106e+006 3.18191950052083e+006 -1.05316274043285e+003 5.64483707683129e+003 -4.95582795346969e+003
2.88000000000000e+003 4.83673393775428e+006 4.04013095669508e+006 2.87792094382370e+006 -1.40379013728420e+003 5.36605988546956e+003 -5.17381316266976e+003
2.94000000000000e+003 4.74213534781133e+006 4.35314939819198e+006 2.56150833510810e+006 -1.74836221707597e+003 5.06413593370242e+003 -5.36948087705711e+003
3.00000000000000e+003 4.62708132631363e+006 4.64739031795420e+006 2.23404653555700e+006 -2.08539265137659e+003 4.74036758518613e+003 -5.54198707442537e+003
3.06000000000000e+003 4.49206816438097e+006 4.92158449345787e+006 1.89694806757567e+006 -2.41342764300923e+003 4.39615143044521e+003 -5.69058764089881e+003
3.12000000000000e+003 4.33767824785650e+006 5.17454917478582e+006 1.55166702180750e+006 -2.73105219707673e+003 4.03297226261120e+003 -5.81464158070365e+003
3.18000000000000e+003 4.16457754515709e+006 5.40519318647699e+006 1.19969278484331e+006 -3.03689622461085e+003 3.65239667269530e+003 -5.91361378113463e+003
3.24000000000000e+003 3.97351273458618e+006 5.61252163436479e+006 8.42543614679795e+005 -3.32964045251779e+003 3.25606629202179e+003 -5.98707732078963e+003
3.30000000000000e+003 3.76530798350056e+006 5.79564019710155e+006 4.81760091639801e+005 -3.60802211432677e+003 2.84569071097142e+003 -6.03471531111591e+003
3.36000000000000e+003 3.54086139322438e+006 5.95375898385713e+006 1.18898473004142e+005 -3.87084039719474e+003 2.42304010458019e+003 -6.05632226332435e+003
3.42000000000000e+003 3.30114112504541e+006 6.08619594155148e+006 -2.44476019979912e+005 -4.11696162167093e+003 1.98993759680312e+003 -6.05180497477529e+003
3.48000000000000e+003 3.04718122400421e+006 6.19237979692379e+006 -6.06795953756627e+005 -4.34532413187836e+003 1.54825139638041e+003 -6.02118293101269e+003
3.54000000000000e+003 2.78007715849050e+006 6.27185252074744e+006 -9.66498443662723e+005 -4.55494287501811e+003 1.09988673822816e+003 -5.96458822171225e+003
END Ephemeris
